{"type": "FeatureCollection", "features": [{"type": "Feature", "geometry": {"type": "Point", "coordinates": [103.845, 1.304]}, "properties": {"highway": "traffic_signals", "name": "Orchard/Scotts"}}, {"type": "Feature", "geometry": {"type": "Point", "coordinates": [103.838, 1.302]}, "properties": {"highway": "traffic_signals", "name": "Orchard/Tanglin"}}, {"type": "Feature", "geometry": {"type": "Point", "coordinates": [103.851, 1.3]}, "properties": {"highway": "traffic_signals", "name": "Orchard/Bras Basah"}}, {"type": "Feature", "geometry": {"type": "Point", "coordinates": [103.836, 1.33]}, "properties": {"highway": "traffic_signals", "name": "PIE/BKE"}}, {"type": "Feature", "geometry": {"type": "Point", "coordinates": [103.836, 1.345]}, "properties": {"highway": "traffic_signals", "name": "Lornie/Adam"}}, {"type": "Feature", "geometry": {"type": "Point", "coordinates": [103.86, 1.31]}, "properties": {"highway": "traffic_signals", "name": "Nicoll/Kallang"}}, {"type": "Feature", "geometry": {"type": "Point", "coordinates": [103.87, 1.313]}, "properties": {"highway": "traffic_signals", "name": "Geylang/Sims"}}, {"type": "Feature", "geometry": {"type": "Point", "coordinates": [103.852, 1.338]}, "properties": {"highway": "traffic_signals", "name": "Toa Payoh/CTE"}}, {"type": "Feature", "geometry": {"type": "Point", "coordinates": [103.84, 1.365]}, "properties": {"highway": "traffic_signals", "name": "AMK Ave/CTE"}}, {"type": "Feature", "geometry": {"type": "Point", "coordinates": [103.83, 1.392]}, "properties": {"highway": "traffic_signals", "name": "SLE/CTE"}}, {"type": "Feature", "geometry": {"type": "Point", "coordinates": [103.79, 1.348]}, "properties": {"highway": "traffic_signals", "name": "PIE/BKE North"}}, {"type": "Feature", "geometry": {"type": "Point", "coordinates": [103.91, 1.33]}, "properties": {"highway": "traffic_signals", "name": "PIE/Tampines"}}, {"type": "Feature", "geometry": {"type": "Point", "coordinates": [103.895, 1.355]}, "properties": {"highway": "traffic_signals", "name": "Hougang/Serangoon"}}, {"type": "Feature", "geometry": {"type": "Point", "coordinates": [103.745, 1.335]}, "properties": {"highway": "traffic_signals", "name": "PIE/Jurong"}}, {"type": "Feature", "geometry": {"type": "Point", "coordinates": [103.77, 1.318]}, "properties": {"highway": "traffic_signals", "name": "Clementi/AYE"}}, {"type": "Feature", "geometry": {"type": "Point", "coordinates": [103.8, 1.3]}, "properties": {"highway": "traffic_signals", "name": "Commonwealth/AYE"}}, {"type": "Feature", "geometry": {"type": "Point", "coordinates": [103.855, 1.289]}, "properties": {"highway": "traffic_signals", "name": "AYE/ECP"}}, {"type": "Feature", "geometry": {"type": "Point", "coordinates": [103.94, 1.345]}, "properties": {"highway": "traffic_signals", "name": "Tampines Hub"}}, {"type": "Feature", "geometry": {"type": "Point", "coordinates": [103.9, 1.37]}, "properties": {"highway": "traffic_signals", "name": "TPE/KPE"}}, {"type": "Feature", "geometry": {"type": "Point", "coordinates": [103.785, 1.43]}, "properties": {"highway": "traffic_signals", "name": "Woodlands Centre"}}, {"type": "Feature", "geometry": {"type": "Point", "coordinates": [103.83, 1.42]}, "properties": {"highway": "traffic_signals", "name": "Yishun Central"}}, {"type": "Feature", "geometry": {"type": "Point", "coordinates": [103.95, 1.37]}, "properties": {"highway": "traffic_signals", "name": "Pasir Ris Central"}}, {"type": "Feature", "geometry": {"type": "Point", "coordinates": [103.82, 1.355]}, "properties": {"highway": "traffic_signals", "name": "Upper Thomson/PIE"}}, {"type": "Feature", "geometry": {"type": "Point", "coordinates": [103.808, 1.328]}, "properties": {"highway": "traffic_signals", "name": "Dunearn/Adam"}}, {"type": "Feature", "geometry": {"type": "Point", "coordinates": [103.88, 1.34]}, "properties": {"highway": "traffic_signals", "name": "Serangoon/Hougang"}}, {"type": "Feature", "geometry": {"type": "Point", "coordinates": [103.92, 1.31]}, "properties": {"highway": "traffic_signals", "name": "ECP/Bedok"}}, {"type": "Feature", "geometry": {"type": "Point", "coordinates": [103.71, 1.315]}, "properties": {"highway": "traffic_signals", "name": "Pioneer/AYE"}}, {"type": "Feature", "geometry": {"type": "Point", "coordinates": [103.862, 1.325]}, "properties": {"highway": "traffic_signals", "name": "Serangoon Mid"}}, {"type": "Feature", "geometry": {"type": "Point", "coordinates": [103.905, 1.322]}, "properties": {"highway": "traffic_signals", "name": "Sims/Changi"}}, {"type": "Feature", "geometry": {"type": "Point", "coordinates": [103.637, 1.332]}, "properties": {"highway": "traffic_signals", "name": "PIE Junction"}}, {"type": "Feature", "geometry": {"type": "Point", "coordinates": [103.67, 1.347]}, "properties": {"highway": "traffic_signals", "name": "PIE Junction"}}, {"type": "Feature", "geometry": {"type": "Point", "coordinates": [103.7, 1.358]}, "properties": {"highway": "traffic_signals", "name": "PIE Junction"}}, {"type": "Feature", "geometry": {"type": "Point", "coordinates": [103.72999999999999, 1.3605]}, "properties": {"highway": "traffic_signals", "name": "PIE Junction"}}, {"type": "Feature", "geometry": {"type": "Point", "coordinates": [103.76, 1.356]}, "properties": {"highway": "traffic_signals", "name": "PIE Junction"}}, {"type": "Feature", "geometry": {"type": "Point", "coordinates": [103.7825, 1.3490000000000002]}, "properties": {"highway": "traffic_signals", "name": "PIE Junction"}}, {"type": "Feature", "geometry": {"type": "Point", "coordinates": [103.81, 1.345]}, "properties": {"highway": "traffic_signals", "name": "PIE Junction"}}, {"type": "Feature", "geometry": {"type": "Point", "coordinates": [103.84, 1.339]}, "properties": {"highway": "traffic_signals", "name": "PIE Junction"}}, {"type": "Feature", "geometry": {"type": "Point", "coordinates": [103.87, 1.336]}, "properties": {"highway": "traffic_signals", "name": "PIE Junction"}}, {"type": "Feature", "geometry": {"type": "Point", "coordinates": [103.9, 1.3315000000000001]}, "properties": {"highway": "traffic_signals", "name": "PIE Junction"}}, {"type": "Feature", "geometry": {"type": "Point", "coordinates": [103.93, 1.328]}, "properties": {"highway": "traffic_signals", "name": "PIE Junction"}}, {"type": "Feature", "geometry": {"type": "Point", "coordinates": [103.955, 1.3375]}, "properties": {"highway": "traffic_signals", "name": "PIE Junction"}}, {"type": "Feature", "geometry": {"type": "Point", "coordinates": [103.637, 1.312]}, "properties": {"highway": "traffic_signals", "name": "AYE Junction"}}, {"type": "Feature", "geometry": {"type": "Point", "coordinates": [103.67, 1.3014999999999999]}, "properties": {"highway": "traffic_signals", "name": "AYE Junction"}}, {"type": "Feature", "geometry": {"type": "Point", "coordinates": [103.7, 1.292]}, "properties": {"highway": "traffic_signals", "name": "AYE Junction"}}, {"type": "Feature", "geometry": {"type": "Point", "coordinates": [103.72999999999999, 1.2865]}, "properties": {"highway": "traffic_signals", "name": "AYE Junction"}}, {"type": "Feature", "geometry": {"type": "Point", "coordinates": [103.76, 1.283]}, "properties": {"highway": "traffic_signals", "name": "AYE Junction"}}, {"type": "Feature", "geometry": {"type": "Point", "coordinates": [103.7825, 1.2825]}, "properties": {"highway": "traffic_signals", "name": "AYE Junction"}}, {"type": "Feature", "geometry": {"type": "Point", "coordinates": [103.8, 1.285]}, "properties": {"highway": "traffic_signals", "name": "AYE Junction"}}, {"type": "Feature", "geometry": {"type": "Point", "coordinates": [103.8175, 1.2890000000000001]}, "properties": {"highway": "traffic_signals", "name": "AYE Junction"}}, {"type": "Feature", "geometry": {"type": "Point", "coordinates": [103.84, 1.291]}, "properties": {"highway": "traffic_signals", "name": "AYE Junction"}}, {"type": "Feature", "geometry": {"type": "Point", "coordinates": [103.84, 1.26]}, "properties": {"highway": "traffic_signals", "name": "CTE Junction"}}, {"type": "Feature", "geometry": {"type": "Point", "coordinates": [103.8385, 1.2825]}, "properties": {"highway": "traffic_signals", "name": "CTE Junction"}}, {"type": "Feature", "geometry": {"type": "Point", "coordinates": [103.837, 1.305]}, "properties": {"highway": "traffic_signals", "name": "CTE Junction"}}, {"type": "Feature", "geometry": {"type": "Point", "coordinates": [103.8355, 1.324]}, "properties": {"highway": "traffic_signals", "name": "CTE Junction"}}, {"type": "Feature", "geometry": {"type": "Point", "coordinates": [103.834, 1.342]}, "properties": {"highway": "traffic_signals", "name": "CTE Junction"}}, {"type": "Feature", "geometry": {"type": "Point", "coordinates": [103.8325, 1.3615]}, "properties": {"highway": "traffic_signals", "name": "CTE Junction"}}, {"type": "Feature", "geometry": {"type": "Point", "coordinates": [103.831, 1.38]}, "properties": {"highway": "traffic_signals", "name": "CTE Junction"}}, {"type": "Feature", "geometry": {"type": "Point", "coordinates": [103.82900000000001, 1.3984999999999999]}, "properties": {"highway": "traffic_signals", "name": "CTE Junction"}}]}